[{"model": "travel_agency.LocalLodging", "pk": "1", "fields": {"city": "100099", "type": "Motel", "street_address": "232 Sauthoff Road", "zip_code": "5", "name": "Leuschke, Wintheiser and Fisher", "rating": "2.7"}}, {"model": "travel_agency.LocalLodging", "pk": "2", "fields": {"city": "82871", "type": "Hotel", "street_address": "624 Anhalt Trail", "zip_code": "41", "name": "Runte-Jacobson", "rating": "3.6"}}, {"model": "travel_agency.LocalLodging", "pk": "3", "fields": {"city": "17180", "type": "Hotel", "street_address": "3 School Center", "zip_code": "13", "name": "Hills and Sons", "rating": "4.2"}}, {"model": "travel_agency.LocalLodging", "pk": "4", "fields": {"city": "17180", "type": "Hotel", "street_address": "7186 Bellgrove Lane", "zip_code": "12", "name": "Kovacek-Glover", "rating": "4.4"}}, {"model": "travel_agency.LocalLodging", "pk": "5", "fields": {"city": "2945", "type": "Hostel", "street_address": "00 Vernon Lane", "zip_code": "26", "name": "Bode, Wunsch and Johns", "rating": "2.3"}}, {"model": "travel_agency.LocalLodging", "pk": "6", "fields": {"city": "62359", "type": "Hotel", "street_address": "15 Erie Hill", "zip_code": "3", "name": "Effertz, Runte and Padberg", "rating": "4.4"}}, {"model": "travel_agency.LocalLodging", "pk": "7", "fields": {"city": "80896", "type": "Hostel", "street_address": "2 North Avenue", "zip_code": "7", "name": "Zboncak, Gislason and Homenick", "rating": "3.8"}}, {"model": "travel_agency.LocalLodging", "pk": "8", "fields": {"city": "17015", "type": "Hotel", "street_address": "71233 Drewry Alley", "zip_code": "11", "name": "Dooley-Botsford", "rating": "2.8"}}, {"model": "travel_agency.LocalLodging", "pk": "9", "fields": {"city": "41220", "type": "Hotel", "street_address": "7 Hanson Drive", "zip_code": "3", "name": "O'Connell, Schultz and Roob", "rating": "3.7"}}, {"model": "travel_agency.LocalLodging", "pk": "10", "fields": {"city": "100099", "type": "Hotel", "street_address": "7 Surrey Court", "zip_code": "30", "name": "Wolff-Parker", "rating": "2.6"}}, {"model": "travel_agency.LocalLodging", "pk": "11", "fields": {"city": "60026", "type": "Motel", "street_address": "17323 Service Trail", "zip_code": "45", "name": "Schneider Group", "rating": "3.8"}}, {"model": "travel_agency.LocalLodging", "pk": "12", "fields": {"city": "78849", "type": "Hostel", "street_address": "21756 Vera Crossing", "zip_code": "24", "name": "Hoppe LLC", "rating": "3.9"}}, {"model": "travel_agency.LocalLodging", "pk": "13", "fields": {"city": "13844", "type": "Hostel", "street_address": "73 Sugar Way", "zip_code": "35", "name": "Weimann-Kshlerin", "rating": "3.9"}}, {"model": "travel_agency.LocalLodging", "pk": "14", "fields": {"city": "60026", "type": "Motel", "street_address": "714 Brentwood Point", "zip_code": "39", "name": "Boehm, Casper and Jaskolski", "rating": "3.5"}}, {"model": "travel_agency.LocalLodging", "pk": "15", "fields": {"city": "100099", "type": "Hotel", "street_address": "1615 Lerdahl Terrace", "zip_code": "18", "name": "Swaniawski Group", "rating": "4.1"}}, {"model": "travel_agency.LocalLodging", "pk": "16", "fields": {"city": "82871", "type": "Hotel", "street_address": "5865 Duke Center", "zip_code": "44", "name": "Feeney, Ortiz and Brekke", "rating": "4.9"}}, {"model": "travel_agency.LocalLodging", "pk": "17", "fields": {"city": "53430", "type": "Motel", "street_address": "424 Packers Court", "zip_code": "32", "name": "Hartmann, Konopelski and Muller", "rating": "3.8"}}, {"model": "travel_agency.LocalLodging", "pk": "18", "fields": {"city": "100099", "type": "Hostel", "street_address": "6438 Dottie Junction", "zip_code": "38", "name": "Cassin Inc", "rating": "4.2"}}, {"model": "travel_agency.LocalLodging", "pk": "19", "fields": {"city": "62359", "type": "Hostel", "street_address": "9 Paget Terrace", "zip_code": "8", "name": "Marks-Muller", "rating": "4.6"}}, {"model": "travel_agency.LocalLodging", "pk": "20", "fields": {"city": "2945", "type": "Hostel", "street_address": "98 Northfield Alley", "zip_code": "6", "name": "Terry, Trantow and Bogan", "rating": "2.1"}}]